GLOBALSTAR M084         
1 38040U 11080A   24311.90515523 -.00000062  00000+0  23190-3 0  9992
2 38040  52.0034   5.1819 0000098 124.4898  46.0584 12.62270009594596
GLOBALSTAR M080         
1 38041U 11080B   24311.87899926 -.00000058  00000+0  25751-3 0  9991
2 38041  52.0088   6.7911 0000319 188.8713 342.2653 12.62268028594712
GLOBALSTAR M082         
1 38042U 11080C   24311.93930976 -.00000070  00000+0  18605-3 0  9994
2 38042  52.0088 322.0307 0000848  67.5256 318.0558 12.62269129595436
GLOBALSTAR M092         
1 38043U 11080D   24311.86268366 -.00000073  00000+0  17312-3 0  9991
2 38043  52.0102  52.6247 0000563 103.7940  53.5572 12.62269067593874
GLOBALSTAR M086         
1 38045U 11080F   24311.78634595 -.00000066  00000+0  20945-3 0  9993
2 38045  51.9908 317.1232 0000833 164.8915   6.2167 12.62269627595476
GLOBALSTAR M097         
1 39072U 13005A   24311.85467495 -.00000069  00000+0  19539-3 0  9994
2 39072  52.0045 231.2371 0000847  83.4314 276.6649 12.62266818542733
